[
    {
        "Altitude(m)": 612513.9356682838,
        "Argument of Periapsis(deg)": 0.0,
        "Eccentricity": 0.0,
        "Inclination(deg)": 60.0,
        "Latitude(deg)": -28.13597639101108,
        "Longitude(deg)": -7.086828254145433,
        "Mean Anomaly(deg)": -147.27269999999996,
        "RAAN(deg)": 255.0,
        "Satellite Name": "Test1 1135",
        "Satellite Number": 1135,
        "Semi-Major Axis(m)": 6980739.136638005,
        "Time(s)": 0
    },
    {
        "Altitude(m)": 612708.3034812552,
        "Argument of Periapsis(deg)": 0.00010418945913296404,
        "Eccentricity": 0.0,
        "Inclination(deg)": 60.0,
        "Latitude(deg)": -28.64771487939822,
        "Longitude(deg)": -6.729596607328178,
        "Mean Anomaly(deg)": -146.65259385453817,
        "RAAN(deg)": 254.99957995086027,
        "Satellite Name": "Test1 1135",
        "Satellite Number": 1135,
        "Semi-Major Axis(m)": 6980739.136638005,
        "Time(s)": 10
    }
]